LEMUR-2-HUBBLE-4        
1 64565U 25135AP  26186.96350627  .00001478  00000+0  14524-3 0  9991
2 64565  97.7713 300.6492 0001840 189.8038 170.3146 14.93667204 56674
LEMUR-2-SEJONG-2        
1 64586U 25135BL  26187.29083828  .00003490  00000+0  30935-3 0  9997
2 64586  97.7710 302.1843 0003072 258.5570 101.5307 14.96869936 56804
LEMUR-2-HUBBLE-5        
1 64840U 25135BT  26186.84166733  .00001559  00000+0  15085-3 0  9990
2 64840  97.7733 301.1878 0004089 276.8419  83.2336 14.94193186 56693
LEMUR-2-KARENDARRELL    
1 64841U 25135BU  26186.86014886  .00008711  00000+0  69651-3 0  9999
2 64841  97.7697 303.0409 0011480 134.6980 225.5180 15.00409594 56814
LEMUR-2-LUCILLE-ROSE    
1 65403U 25135BV  26186.76687887  .00009864  00000+0  78739-3 0  9997
2 65403  97.7723 302.9819 0013675 218.3295 141.6958 15.00412220 51422
LEMUR-2-AFFIE-WAUWIE    
1 66295U 25248C   26186.82496655  .00022785  00000+0  82702-3 0  9992
2 66295  45.3926  13.9564 0008363 202.7682 157.2838 15.27976863 37440
LEMUR-2-DEANANDMAEVE    
1 66678U 25276N   26187.14438525  .00007494  00000+0  35110-3 0  9997
2 66678  97.4199 260.3076 0004246 297.3184  62.7619 15.19983006 33298
LEMUR-2-STAS-GORBUK     
1 66686U 25276W   26187.16347759  .00006473  00000+0  30715-3 0  9998
2 66686  97.4233 260.3793 0003514 294.6730  65.4139 15.19595995 33299
LEMUR-2-TEODOR          
1 66768U 25276DG  26187.19220302  .00005899  00000+0  26697-3 0  9991
2 66768  97.4139 260.6680 0002356  97.3596 262.7907 15.21272381 33338
LEMUR-2-LAILA           
1 66776U 25276DQ  26187.16333770  .00006559  00000+0  29452-3 0  9997
2 66776  97.4163 260.7722 0002844 107.6963 252.4583 15.21496473 33333
LEMUR-2-CELIJO-SB-PK    
1 66781U 25276DW  26187.18077728  .00006720  00000+0  54133-3 0  9997
2 66781  97.5200 257.3328 0007504  86.3830 273.8252 15.00221504 25474
LEMUR-2-FINNIAN         
1 66782U 25276DX  26186.75294892  .00003879  00000+0  31193-3 0  9996
2 66782  97.5345 257.1647 0008284  32.7204 327.4532 15.00540875 22786
LEMUR-2-STARLIGHT       
1 66783U 25276DY  26187.19275246  .00007274  00000+0  59905-3 0  9992
2 66783  97.5223 257.1818 0014680  73.3562 286.9272 14.99280589 33048
LEMUR-2-TARTIFLETTE     
1 66784U 25276DZ  26187.19107751  .00005885  00000+0  48588-3 0  9999
2 66784  97.5224 257.1880 0013703  81.1242 279.1533 14.99273385 33046
LEMUR-2-VUKASIN         
1 66785U 25276EA  26186.16841346  .00002695  00000+0  21869-3 0  9990
2 66785  97.5256 256.5396 0004613  82.2970 277.8778 15.00457120 32844
LEMUR-2-HOTSPUR-TOM     
1 66786U 25276EB  26187.18491205  .00006274  00000+0  51889-3 0  9991
2 66786  97.5216 257.1593 0013987  72.3986 287.8764 14.99179411 32979
